[{"OBJECT_NAME":"YAOGAN-30 01","OBJECT_ID":"2016-029A","EPOCH":"2026-03-09T22:16:48.722016","MEAN_MOTION":14.76274788,"ECCENTRICITY":0.00157389,"INCLINATION":97.9148,"RA_OF_ASC_NODE":120.91,"ARG_OF_PERICENTER":189.8779,"MEAN_ANOMALY":170.2124,"EPHEMERIS_TYPE":0,"CLASSIFICATION_TYPE":"U","NORAD_CAT_ID":41473,"ELEMENT_SET_NO":999,"REV_AT_EPOCH":52902,"BSTAR":0.00014079797,"MEAN_MOTION_DOT":9.27e-6,"MEAN_MOTION_DDOT":0},{"OBJECT_NAME":"THOR ABLESTAR DEB","OBJECT_ID":"1961-015LG","EPOCH":"2026-03-09T03:22:34.457376","MEAN_MOTION":14.82401387,"ECCENTRICITY":0.00412811,"INCLINATION":67.0386,"RA_OF_ASC_NODE":327.1987,"ARG_OF_PERICENTER":306.0111,"MEAN_ANOMALY":205.5133,"EPHEMERIS_TYPE":0,"CLASSIFICATION_TYPE":"U","NORAD_CAT_ID":15783,"ELEMENT_SET_NO":999,"REV_AT_EPOCH":16798,"BSTAR":0.0013473348,"MEAN_MOTION_DOT":0.0001088,"MEAN_MOTION_DDOT":0}]
